
# Worst residual: 14.58 km
# MJD 57911.000000 (2017 Jun  7  0:00)
2011-037A = Spektr-R = NORAD 37755
1 37755U 11037A   17158.49919926  .00000000  00000-0  00000-0 0    03
2 37755 073.7633 306.4877 6476098 339.9933 123.7706 00.11328467    00

# Worst residual: 8.31 km
# MJD 57912.000000 (2017 Jun  8  0:00)
2011-037A = Spektr-R = NORAD 37755
1 37755U 11037A   17159.49919926  .00000000  00000-0  00000-0 0    04
2 37755 073.7301 306.4881 6478161 340.1626 164.0856 00.11321025    00

# Worst residual: 7.61 km
# MJD 57913.000000 (2017 Jun  9  0:00)
2011-037A = Spektr-R = NORAD 37755
1 37755U 11037A   17160.49919926  .00000000  00000-0  00000-0 0    06
2 37755 073.6443 306.5017 6476538 340.2491 204.6602 00.11318644    08

# Worst residual: 22.89 km
# MJD 57914.000000 (2017 Jun 10  0:00)
2011-037A = Spektr-R = NORAD 37755
1 37755U 11037A   17161.49919926  .00000000  00000-0  00000-0 0    07
2 37755 073.5714 306.4973 6470829 340.1988 245.6052 00.11297764    08

# Worst residual: 60.74 km
# MJD 57915.000000 (2017 Jun 11  0:00)
2011-037A = Spektr-R = NORAD 37755
1 37755U 11037A   17162.49919926  .00000000  00000-0  00000-0 0    08
2 37755 073.5717 306.4908 6470064 339.8594 286.9887 00.11202946    00

# Worst residual: 225.01 km
# MJD 57916.000000 (2017 Jun 12  0:00)
2011-037A = Spektr-R = NORAD 37755
1 37755U 11037A   17163.49919926  .00000000  00000-0  00000-0 0    09
2 37755 073.6150 306.5527 6545469 339.0857 328.5853 00.10798244    02

# Worst residual: 327.27 km
# MJD 57917.000000 (2017 Jun 13  0:00)
2011-037A = Spektr-R = NORAD 37755
1 37755U 11037A   17164.49919926  .00000000  00000-0  00000-0 0    00
2 37755 073.5824 306.6067 6638110 340.9586 006.9055 00.10607173    06

# Worst residual: 95.20 km
# MJD 57918.000000 (2017 Jun 14  0:00)
2011-037A = Spektr-R = NORAD 37755
1 37755U 11037A   17165.49919926  .00000000  00000-0  00000-0 0    01
2 37755 073.6299 306.5953 6490804 341.0532 047.9626 00.11130023    00

# Worst residual: 27.27 km
# MJD 57919.000000 (2017 Jun 15  0:00)
2011-037A = Spektr-R = NORAD 37755
1 37755U 11037A   17166.49919926  .00000000  00000-0  00000-0 0    02
2 37755 073.6085 306.6265 6471697 340.5421 089.6007 00.11290755    05

# Worst residual: 5.70 km
# MJD 57920.000000 (2017 Jun 16  0:00)
2011-037A = Spektr-R = NORAD 37755
1 37755U 11037A   17167.49919926  .00000000  00000-0  00000-0 0    03
2 37755 073.6227 306.5937 6472827 340.4798 130.5719 00.11317364    02

# Worst residual: 9.12 km
# MJD 57921.000000 (2017 Jun 17  0:00)
2011-037A = Spektr-R = NORAD 37755
1 37755U 11037A   17168.49919926  .00000000  00000-0  00000-0 0    04
2 37755 073.6788 306.5409 6470634 340.6004 171.0963 00.11313456    03

# Worst residual: 12.61 km
# MJD 57922.000000 (2017 Jun 18  0:00)
2011-037A = Spektr-R = NORAD 37755
1 37755U 11037A   17169.49919926  .00000000  00000-0  00000-0 0    05
2 37755 073.6903 306.5164 6464467 340.7672 211.3806 00.11309411    09

# Worst residual: 14.79 km
# MJD 57923.000000 (2017 Jun 19  0:00)
2011-037A = Spektr-R = NORAD 37755
1 37755U 11037A   17170.49919926  .00000000  00000-0  00000-0 0    07
2 37755 073.5872 306.5064 6456757 340.9191 251.6615 00.11314117    07

# Worst residual: 12.37 km
# MJD 57924.000000 (2017 Jun 20  0:00)
2011-037A = Spektr-R = NORAD 37755
1 37755U 11037A   17171.49919926  .00000000  00000-0  00000-0 0    08
2 37755 073.4345 306.4648 6448721 340.9961 292.1607 00.11314610    04

# Worst residual: 43.46 km
# MJD 57925.000000 (2017 Jun 21  0:00)
2011-037A = Spektr-R = NORAD 37755
1 37755U 11037A   17172.49919926  .00000000  00000-0  00000-0 0    09
2 37755 073.4251 306.4701 6451743 340.8899 332.8903 00.11256177    01

# Worst residual: 82.43 km
# MJD 57926.000000 (2017 Jun 22  0:00)
2011-037A = Spektr-R = NORAD 37755
1 37755U 11037A   17173.49919926  .00000000  00000-0  00000-0 0    00
2 37755 073.2602 306.5749 6461079 340.9811 013.2009 00.11214289    05

# Worst residual: 15.28 km
# MJD 57927.000000 (2017 Jun 23  0:00)
2011-037A = Spektr-R = NORAD 37755
1 37755U 11037A   17174.49919926  .00000000  00000-0  00000-0 0    01
2 37755 073.2350 306.3630 6452643 341.0919 053.6538 00.11244284    03

# Worst residual: 51.92 km
# MJD 57928.000000 (2017 Jun 24  0:00)
2011-037A = Spektr-R = NORAD 37755
1 37755U 11037A   17175.49919926  .00000000  00000-0  00000-0 0    02
2 37755 073.3497 306.1565 6432412 341.5032 093.7362 00.11199843    04

# Worst residual: 205.31 km
# MJD 57929.000000 (2017 Jun 25  0:00)
2011-037A = Spektr-R = NORAD 37755
1 37755U 11037A   17176.49919926  .00000000  00000-0  00000-0 0    03
2 37755 073.8649 305.6848 6318918 342.9718 131.4887 00.10971724    03

# Worst residual: 286.66 km
# MJD 57930.000000 (2017 Jun 26  0:00)
2011-037A = Spektr-R = NORAD 37755
1 37755U 11037A   17177.49919926  .00000000  00000-0  00000-0 0    04
2 37755 073.1240 305.9676 6034981 345.7998 163.2099 00.10530216    06

# Worst residual: 100.90 km
# MJD 57931.000000 (2017 Jun 27  0:00)
2011-037A = Spektr-R = NORAD 37755
1 37755U 11037A   17178.49919926  .00000000  00000-0  00000-0 0    05
2 37755 071.0454 306.5312 5945209 346.6461 197.9416 00.10435839    04

# Worst residual: 30.83 km
# MJD 57932.000000 (2017 Jun 28  0:00)
2011-037A = Spektr-R = NORAD 37755
1 37755U 11037A   17179.49919926  .00000000  00000-0  00000-0 0    06
2 37755 070.2433 306.5643 5940821 346.7230 235.3292 00.10431368    01

# Worst residual: 12.67 km
# MJD 57933.000000 (2017 Jun 29  0:00)
2011-037A = Spektr-R = NORAD 37755
1 37755U 11037A   17180.49919926  .00000000  00000-0  00000-0 0    08
2 37755 070.0056 306.5043 5943337 346.7367 272.9566 00.10418101    01

# Worst residual: 9.34 km
# MJD 57934.000000 (2017 Jun 30  0:00)
2011-037A = Spektr-R = NORAD 37755
1 37755U 11037A   17181.49919926  .00000000  00000-0  00000-0 0    09
2 37755 069.9128 306.4404 5947757 346.7586 310.4623 00.10399288    07

# Worst residual: 18.78 km
# MJD 57935.000000 (2017 Jul  1  0:00)
2011-037A = Spektr-R = NORAD 37755
1 37755U 11037A   17182.49919926  .00000000  00000-0  00000-0 0    00
2 37755 069.8766 306.3636 5948850 346.8489 347.7746 00.10401396    01

# Worst residual: 25.88 km
# MJD 57936.000000 (2017 Jul  2  0:00)
2011-037A = Spektr-R = NORAD 37755
1 37755U 11037A   17183.49919926  .00000000  00000-0  00000-0 0    01
2 37755 069.8882 306.3374 5936146 346.6705 025.3763 00.10480893    00
